[{"OBJECT_NAME":"STARLINK-36862","OBJECT_ID":"2026-039T","EPOCH":"2026-03-06T14:00:01.000224","MEAN_MOTION":15.96058882,"ECCENTRICITY":0.0001923,"INCLINATION":42.9978,"RA_OF_ASC_NODE":74.0521,"ARG_OF_PERICENTER":272.8844,"MEAN_ANOMALY":28.2239,"EPHEMERIS_TYPE":0,"CLASSIFICATION_TYPE":"U","NORAD_CAT_ID":68003,"ELEMENT_SET_NO":999,"REV_AT_EPOCH":237,"BSTAR":-0.0034074205,"MEAN_MOTION_DOT":-0.01451271,"MEAN_MOTION_DDOT":0.0006217769},{"OBJECT_NAME":"STARLINK-36888","OBJECT_ID":"2026-039U","EPOCH":"2026-03-06T14:00:01.000224","MEAN_MOTION":15.95646277,"ECCENTRICITY":0.00018759,"INCLINATION":42.9979,"RA_OF_ASC_NODE":74.0685,"ARG_OF_PERICENTER":269.9458,"MEAN_ANOMALY":24.8334,"EPHEMERIS_TYPE":0,"CLASSIFICATION_TYPE":"U","NORAD_CAT_ID":68004,"ELEMENT_SET_NO":999,"REV_AT_EPOCH":237,"BSTAR":-0.0034812531,"MEAN_MOTION_DOT":-0.01449764,"MEAN_MOTION_DDOT":0.00061799542},{"OBJECT_NAME":"STARLINK-36910","OBJECT_ID":"2026-039V","EPOCH":"2026-03-06T14:00:01.000224","MEAN_MOTION":15.95931092,"ECCENTRICITY":0.00019365,"INCLINATION":42.9977,"RA_OF_ASC_NODE":74.057,"ARG_OF_PERICENTER":272.7956,"MEAN_ANOMALY":26.3989,"EPHEMERIS_TYPE":0,"CLASSIFICATION_TYPE":"U","NORAD_CAT_ID":68005,"ELEMENT_SET_NO":999,"REV_AT_EPOCH":237,"BSTAR":-0.0034464194,"MEAN_MOTION_DOT":-0.01457606,"MEAN_MOTION_DDOT":0.00062595232},{"OBJECT_NAME":"STARLINK-36889","OBJECT_ID":"2026-039W","EPOCH":"2026-03-06T14:00:01.000224","MEAN_MOTION":15.96192704,"ECCENTRICITY":0.00018683,"INCLINATION":42.9977,"RA_OF_ASC_NODE":74.0466,"ARG_OF_PERICENTER":274.2869,"MEAN_ANOMALY":28.8334,"EPHEMERIS_TYPE":0,"CLASSIFICATION_TYPE":"U","NORAD_CAT_ID":68006,"ELEMENT_SET_NO":999,"REV_AT_EPOCH":237,"BSTAR":-0.0033688354,"MEAN_MOTION_DOT":-0.01445428,"MEAN_MOTION_DDOT":0.00061803235},{"OBJECT_NAME":"STARLINK-36592","OBJECT_ID":"2026-039X","EPOCH":"2026-03-06T14:00:01.000224","MEAN_MOTION":15.96330791,"ECCENTRICITY":0.00018511,"INCLINATION":42.9976,"RA_OF_ASC_NODE":74.0421,"ARG_OF_PERICENTER":273.3332,"MEAN_ANOMALY":31.7868,"EPHEMERIS_TYPE":0,"CLASSIFICATION_TYPE":"U","NORAD_CAT_ID":68007,"ELEMENT_SET_NO":999,"REV_AT_EPOCH":237,"BSTAR":-0.0033613309,"MEAN_MOTION_DOT":-0.01453054,"MEAN_MOTION_DDOT":0.00062491273},{"OBJECT_NAME":"STARLINK-36911","OBJECT_ID":"2026-039Y","EPOCH":"2026-03-06T14:00:01.000224","MEAN_MOTION":15.96460728,"ECCENTRICITY":0.00019489,"INCLINATION":42.9978,"RA_OF_ASC_NODE":74.0366,"ARG_OF_PERICENTER":272.5212,"MEAN_ANOMALY":34.7244,"EPHEMERIS_TYPE":0,"CLASSIFICATION_TYPE":"U","NORAD_CAT_ID":68008,"ELEMENT_SET_NO":999,"REV_AT_EPOCH":237,"BSTAR":-0.0033105854,"MEAN_MOTION_DOT":-0.01441523,"MEAN_MOTION_DDOT":0.00061666029},{"OBJECT_NAME":"STARLINK-36956","OBJECT_ID":"2026-039Z","EPOCH":"2026-03-06T14:00:01.000224","MEAN_MOTION":15.9659694,"ECCENTRICITY":0.0001805,"INCLINATION":42.9976,"RA_OF_ASC_NODE":74.0313,"ARG_OF_PERICENTER":276.0753,"MEAN_ANOMALY":33.185,"EPHEMERIS_TYPE":0,"CLASSIFICATION_TYPE":"U","NORAD_CAT_ID":68009,"ELEMENT_SET_NO":999,"REV_AT_EPOCH":237,"BSTAR":-0.0032973844,"MEAN_MOTION_DOT":-0.01446455,"MEAN_MOTION_DDOT":0.00062140579},{"OBJECT_NAME":"STARLINK-36953","OBJECT_ID":"2026-039AA","EPOCH":"2026-03-06T14:00:01.000224","MEAN_MOTION":15.96881163,"ECCENTRICITY":0.0001945,"INCLINATION":42.9975,"RA_OF_ASC_NODE":74.0199,"ARG_OF_PERICENTER":273.1528,"MEAN_ANOMALY":40.5112,"EPHEMERIS_TYPE":0,"CLASSIFICATION_TYPE":"U","NORAD_CAT_ID":68010,"ELEMENT_SET_NO":999,"REV_AT_EPOCH":237,"BSTAR":-0.0032888164,"MEAN_MOTION_DOT":-0.01465264,"MEAN_MOTION_DDOT":0.00063818738},{"OBJECT_NAME":"STARLINK-36991","OBJECT_ID":"2026-039AB","EPOCH":"2026-03-06T14:00:01.000224","MEAN_MOTION":15.97014264,"ECCENTRICITY":0.00019342,"INCLINATION":42.9975,"RA_OF_ASC_NODE":74.0147,"ARG_OF_PERICENTER":274.0905,"MEAN_ANOMALY":41.7338,"EPHEMERIS_TYPE":0,"CLASSIFICATION_TYPE":"U","NORAD_CAT_ID":68011,"ELEMENT_SET_NO":999,"REV_AT_EPOCH":237,"BSTAR":-0.0032612543,"MEAN_MOTION_DOT":-0.01463718,"MEAN_MOTION_DDOT":0.0006378272},{"OBJECT_NAME":"STARLINK-36936","OBJECT_ID":"2026-039AC","EPOCH":"2026-03-06T14:00:01.000224","MEAN_MOTION":15.97294654,"ECCENTRICITY":0.00020187,"INCLINATION":42.9974,"RA_OF_ASC_NODE":74.0035,"ARG_OF_PERICENTER":273.0949,"MEAN_ANOMALY":46.9518,"EPHEMERIS_TYPE":0,"CLASSIFICATION_TYPE":"U","NORAD_CAT_ID":68012,"ELEMENT_SET_NO":999,"REV_AT_EPOCH":237,"BSTAR":-0.0032488589,"MEAN_MOTION_DOT":-0.01480776,"MEAN_MOTION_DDOT":0.00065344445},{"OBJECT_NAME":"STARLINK-36967","OBJECT_ID":"2026-039AD","EPOCH":"2026-03-06T14:00:01.000224","MEAN_MOTION":15.96734213,"ECCENTRICITY":0.0001936,"INCLINATION":42.9974,"RA_OF_ASC_NODE":74.0255,"ARG_OF_PERICENTER":272.6343,"MEAN_ANOMALY":38.7578,"EPHEMERIS_TYPE":0,"CLASSIFICATION_TYPE":"U","NORAD_CAT_ID":68013,"ELEMENT_SET_NO":999,"REV_AT_EPOCH":237,"BSTAR":-0.0032771628,"MEAN_MOTION_DOT":-0.01448498,"MEAN_MOTION_DDOT":0.00062389796},{"OBJECT_NAME":"STARLINK-36985","OBJECT_ID":"2026-039AE","EPOCH":"2026-03-06T14:00:01.000224","MEAN_MOTION":15.97154925,"ECCENTRICITY":0.00019206,"INCLINATION":42.9975,"RA_OF_ASC_NODE":74.0094,"ARG_OF_PERICENTER":274.8677,"MEAN_ANOMALY":42.9947,"EPHEMERIS_TYPE":0,"CLASSIFICATION_TYPE":"U","NORAD_CAT_ID":68014,"ELEMENT_SET_NO":999,"REV_AT_EPOCH":237,"BSTAR":-0.0032639818,"MEAN_MOTION_DOT":-0.01476222,"MEAN_MOTION_DDOT":0.00064881535}]
