STARLINK-36862          
1 68003U 26039T   26065.58334491 -.01451271  62178-3 -34074-2 0  9993
2 68003  42.9978  74.0521 0001923 272.8844  28.2239 15.96058882  2377
STARLINK-36888          
1 68004U 26039U   26065.58334491 -.01449764  61800-3 -34813-2 0  9990
2 68004  42.9979  74.0685 0001875 269.9458  24.8334 15.95646277  2372
STARLINK-36910          
1 68005U 26039V   26065.58334491 -.01457606  62595-3 -34464-2 0  9999
2 68005  42.9977  74.0570 0001936 272.7956  26.3989 15.95931092  2372
STARLINK-36889          
1 68006U 26039W   26065.58334491 -.01445428  61803-3 -33688-2 0  9997
2 68006  42.9977  74.0466 0001868 274.2869  28.8334 15.96192704  2372
STARLINK-36592          
1 68007U 26039X   26065.58334491 -.01453054  62491-3 -33613-2 0  9994
2 68007  42.9976  74.0421 0001851 273.3332  31.7868 15.96330791  2375
STARLINK-36911          
1 68008U 26039Y   26065.58334491 -.01441523  61666-3 -33106-2 0  9993
2 68008  42.9978  74.0366 0001948 272.5212  34.7244 15.96460728  2376
STARLINK-36956          
1 68009U 26039Z   26065.58334491 -.01446455  62141-3 -32974-2 0  9994
2 68009  42.9976  74.0313 0001805 276.0753  33.1850 15.96596940  2370
STARLINK-36953          
1 68010U 26039AA  26065.58334491 -.01465264  63819-3 -32888-2 0  9992
2 68010  42.9975  74.0199 0001945 273.1528  40.5112 15.96881163  2373
STARLINK-36991          
1 68011U 26039AB  26065.58334491 -.01463718  63783-3 -32613-2 0  9991
2 68011  42.9975  74.0147 0001934 274.0905  41.7338 15.97014264  2378
STARLINK-36936          
1 68012U 26039AC  26065.58334491 -.01480776  65344-3 -32489-2 0  9991
2 68012  42.9974  74.0035 0002018 273.0949  46.9518 15.97294654  2375
STARLINK-36967          
1 68013U 26039AD  26065.58334491 -.01448498  62390-3 -32772-2 0  9990
2 68013  42.9974  74.0255 0001936 272.6343  38.7578 15.96734213  2375
STARLINK-36985          
1 68014U 26039AE  26065.58334491 -.01476222  64882-3 -32640-2 0  9999
2 68014  42.9975  74.0094 0001920 274.8677  42.9947 15.97154925  2379
